{"type": "FeatureCollection", "features": [ {"type": "Feature", "properties": {"norad_id": 66929, "name": "STARLINK-36169", "group": "last-30-days", "lat": 24.53039796137311, "lon": 28.169937683720548, "alt_km": 341.1354590888195, "timestamp": "2025-12-21T03:56:49.617418+00:00", "meta": {"OBJECT_NAME": "STARLINK-36169", "OBJECT_ID": "2025-286E", "EPOCH": "2025-12-20T20:00:01.999008", "MEAN_MOTION": 15.76037936, "ECCENTRICITY": 0.000105, "INCLINATION": 53.1574, "RA_OF_ASC_NODE": 9.8069, "ARG_OF_PERICENTER": 93.8581, "MEAN_ANOMALY": 218.3418, "EPHEMERIS_TYPE": 0, "CLASSIFICATION_TYPE": "U", "NORAD_CAT_ID": 66929, "ELEMENT_SET_NO": 999, "REV_AT_EPOCH": 329, "BSTAR": -0.0089176, "MEAN_MOTION_DOT": -0.01271801, "MEAN_MOTION_DDOT": 0}, "tle": {"line1": "1 66929U 25286E   25354.83335647 -.01271801  00000+0 -89176-2 0  9997", "line2": "2 66929  53.1574   9.8069 0001050  93.8581 218.3418 15.76037936  3299"}}, "geometry": {"type": "Point", "coordinates": [28.169937683720548, 24.53039796137311]}}, {"type": "Feature", "properties": {"norad_id": 66930, "name": "STARLINK-36206", "group": "last-30-days", "lat": 25.995647638924385, "lon": 29.60218453435026, "alt_km": 341.17871429413026, "timestamp": "2025-12-21T03:56:49.617427+00:00", "meta": {"OBJECT_NAME": "STARLINK-36206", "OBJECT_ID": "2025-286F", "EPOCH": "2025-12-20T20:00:01.999008", "MEAN_MOTION": 15.76008702, "ECCENTRICITY": 9.49e-05, "INCLINATION": 53.1575, "RA_OF_ASC_NODE": 9.8027, "ARG_OF_PERICENTER": 103.0578, "MEAN_ANOMALY": 211.1321, "EPHEMERIS_TYPE": 0, "CLASSIFICATION_TYPE": "U", "NORAD_CAT_ID": 66930, "ELEMENT_SET_NO": 999, "REV_AT_EPOCH": 329, "BSTAR": -0.0089109, "MEAN_MOTION_DOT": -0.01269411, "MEAN_MOTION_DDOT": 0}, "tle": {"line1": "1 66930U 25286F   25354.83335647 -.01269411  00000+0 -89109-2 0  9999", "line2": "2 66930  53.1575   9.8027 0000949 103.0578 211.1321 15.76008702  3295"}}, "geometry": {"type": "Point", "coordinates": [29.60218453435026, 25.995647638924385]}}, {"type": "Feature", "properties": {"norad_id": 66931, "name": "STARLINK-36130", "group": "last-30-days", "lat": 27.466286635321676, "lon": 31.09144098814212, "alt_km": 340.8635438178935, "timestamp": "2025-12-21T03:56:49.617438+00:00", "meta": {"OBJECT_NAME": "STARLINK-36130", "OBJECT_ID": "2025-286G", "EPOCH": "2025-12-20T20:00:01.999008", "MEAN_MOTION": 15.75965878, "ECCENTRICITY": 0.0001077, "INCLINATION": 53.1572, "RA_OF_ASC_NODE": 9.7984, "ARG_OF_PERICENTER": 91.332, "MEAN_ANOMALY": 224.9103, "EPHEMERIS_TYPE": 0, "CLASSIFICATION_TYPE": "U", "NORAD_CAT_ID": 66931, "ELEMENT_SET_NO": 999, "REV_AT_EPOCH": 329, "BSTAR": -0.0092325, "MEAN_MOTION_DOT": -0.01308272, "MEAN_MOTION_DDOT": 0}, "tle": {"line1": "1 66931U 25286G   25354.83335647 -.01308272  00000+0 -92325-2 0  9993", "line2": "2 66931  53.1572   9.7984 0001077  91.3320 224.9103 15.75965878  3296"}}, "geometry": {"type": "Point", "coordinates": [31.09144098814212, 27.466286635321676]}}, {"type": "Feature", "properties": {"norad_id": 66932, "name": "STARLINK-36177", "group": "last-30-days", "lat": 28.94031583240119, "lon": 32.641934069123046, "alt_km": 340.68444761960563, "timestamp": "2025-12-21T03:56:49.617447+00:00", "meta": {"OBJECT_NAME": "STARLINK-36177", "OBJECT_ID": "2025-286H", "EPOCH": "2025-12-20T20:00:01.999008", "MEAN_MOTION": 15.75900643, "ECCENTRICITY": 8.75e-05, "INCLINATION": 53.1569, "RA_OF_ASC_NODE": 9.794, "ARG_OF_PERICENTER": 90.4074, "MEAN_ANOMALY": 227.8662, "EPHEMERIS_TYPE": 0, "CLASSIFICATION_TYPE": "U", "NORAD_CAT_ID": 66932, "ELEMENT_SET_NO": 999, "REV_AT_EPOCH": 329, "BSTAR": -0.0083447, "MEAN_MOTION_DOT": -0.01171573, "MEAN_MOTION_DDOT": 0}, "tle": {"line1": "1 66932U 25286H   25354.83335647 -.01171573  00000+0 -83447-2 0  9991", "line2": "2 66932  53.1569   9.7940 0000875  90.4074 227.8662 15.75900643  3297"}}, "geometry": {"type": "Point", "coordinates": [32.641934069123046, 28.94031583240119]}}, {"type": "Feature", "properties": {"norad_id": 66933, "name": "STARLINK-36157", "group": "last-30-days", "lat": 30.362328903694475, "lon": 34.199117250362704, "alt_km": 340.7246926175794, "timestamp": "2025-12-21T03:56:49.617456+00:00", "meta": {"OBJECT_NAME": "STARLINK-36157", "OBJECT_ID": "2025-286J", "EPOCH": "2025-12-20T20:00:01.999008", "MEAN_MOTION": 15.75866698, "ECCENTRICITY": 6.49e-05, "INCLINATION": 53.157, "RA_OF_ASC_NODE": 9.7897, "ARG_OF_PERICENTER": 89.5194, "MEAN_ANOMALY": 230.7781, "EPHEMERIS_TYPE": 0, "CLASSIFICATION_TYPE": "U", "NORAD_CAT_ID": 66933, "ELEMENT_SET_NO": 999, "REV_AT_EPOCH": 329, "BSTAR": -0.0087267, "MEAN_MOTION_DOT": -0.01217288, "MEAN_MOTION_DDOT": 0}, "tle": {"line1": "1 66933U 25286J   25354.83335647 -.01217288  00000+0 -87267-2 0  9990", "line2": "2 66933  53.1570   9.7897 0000649  89.5194 230.7781 15.75866698  3298"}}, "geometry": {"type": "Point", "coordinates": [34.199117250362704, 30.362328903694475]}}, {"type": "Feature", "properties": {"norad_id": 66934, "name": "STARLINK-36153", "group": "last-30-days", "lat": 31.750279188832163, "lon": 35.78498120439068, "alt_km": 340.67346927272865, "timestamp": "2025-12-21T03:56:49.617464+00:00", "meta": {"OBJECT_NAME": "STARLINK-36153", "OBJECT_ID": "2025-286K", "EPOCH": "2025-12-20T20:00:01.999008", "MEAN_MOTION": 15.75814941, "ECCENTRICITY": 8.5e-05, "INCLINATION": 53.1572, "RA_OF_ASC_NODE": 9.7859, "ARG_OF_PERICENTER": 90.1088, "MEAN_ANOMALY": 232.221, "EPHEMERIS_TYPE": 0, "CLASSIFICATION_TYPE": "U", "NORAD_CAT_ID": 66934, "ELEMENT_SET_NO": 999, "REV_AT_EPOCH": 329, "BSTAR": -0.0091887, "MEAN_MOTION_DOT": -0.01294815, "MEAN_MOTION_DDOT": 0}, "tle": {"line1": "1 66934U 25286K   25354.83335647 -.01294815  00000+0 -91887-2 0  9995", "line2": "2 66934  53.1572   9.7859 0000850  90.1088 232.2210 15.75814941  3291"}}, "geometry": {"type": "Point", "coordinates": [35.78498120439068, 31.750279188832163]}}, {"type": "Feature", "properties": {"norad_id": 66935, "name": "STARLINK-36127", "group": "last-30-days", "lat": 33.142421776162536, "lon": 37.448793841289756, "alt_km": 340.69170881492573, "timestamp": "2025-12-21T03:56:49.617473+00:00", "meta": {"OBJECT_NAME": "STARLINK-36127", "OBJECT_ID": "2025-286L", "EPOCH": "2025-12-20T20:00:01.999008", "MEAN_MOTION": 15.75748025, "ECCENTRICITY": 8.85e-05, "INCLINATION": 53.1569, "RA_OF_ASC_NODE": 9.7814, "ARG_OF_PERICENTER": 91.1133, "MEAN_ANOMALY": 233.2906, "EPHEMERIS_TYPE": 0, "CLASSIFICATION_TYPE": "U", "NORAD_CAT_ID": 66935, "ELEMENT_SET_NO": 999, "REV_AT_EPOCH": 329, "BSTAR": -0.009492, "MEAN_MOTION_DOT": -0.01329494, "MEAN_MOTION_DDOT": 0}, "tle": {"line1": "1 66935U 25286L   25354.83335647 -.01329494  00000+0 -94920-2 0  9999", "line2": "2 66935  53.1569   9.7814 0000885  91.1133 233.2906 15.75748025  3291"}}, "geometry": {"type": "Point", "coordinates": [37.448793841289756, 33.142421776162536]}}, {"type": "Feature", "properties": {"norad_id": 66936, "name": "STARLINK-36160", "group": "last-30-days", "lat": 34.48789530413062, "lon": 39.13527993982596, "alt_km": 340.5600301479908, "timestamp": "2025-12-21T03:56:49.617485+00:00", "meta": {"OBJECT_NAME": "STARLINK-36160", "OBJECT_ID": "2025-286M", "EPOCH": "2025-12-20T20:00:01.999008", "MEAN_MOTION": 15.75714806, "ECCENTRICITY": 8.7e-05, "INCLINATION": 53.1572, "RA_OF_ASC_NODE": 9.7776, "ARG_OF_PERICENTER": 86.7497, "MEAN_ANOMALY": 239.6443, "EPHEMERIS_TYPE": 0, "CLASSIFICATION_TYPE": "U", "NORAD_CAT_ID": 66936, "ELEMENT_SET_NO": 999, "REV_AT_EPOCH": 329, "BSTAR": -0.0096537, "MEAN_MOTION_DOT": -0.01347918, "MEAN_MOTION_DDOT": 0}, "tle": {"line1": "1 66936U 25286M   25354.83335647 -.01347918  00000+0 -96537-2 0  9997", "line2": "2 66936  53.1572   9.7776 0000870  86.7497 239.6443 15.75714806  3296"}}, "geometry": {"type": "Point", "coordinates": [39.13527993982596, 34.48789530413062]}}, {"type": "Feature", "properties": {"norad_id": 66937, "name": "STARLINK-36165", "group": "last-30-days", "lat": 35.80836317579544, "lon": 40.875068742067434, "alt_km": 340.4806807591058, "timestamp": "2025-12-21T03:56:49.617494+00:00", "meta": {"OBJECT_NAME": "STARLINK-36165", "OBJECT_ID": "2025-286N", "EPOCH": "2025-12-20T20:00:01.999008", "MEAN_MOTION": 15.75685305, "ECCENTRICITY": 8.68e-05, "INCLINATION": 53.1571, "RA_OF_ASC_NODE": 9.773, "ARG_OF_PERICENTER": 84.7043, "MEAN_ANOMALY": 243.6832, "EPHEMERIS_TYPE": 0, "CLASSIFICATION_TYPE": "U", "NORAD_CAT_ID": 66937, "ELEMENT_SET_NO": 999, "REV_AT_EPOCH": 329, "BSTAR": -0.0099606, "MEAN_MOTION_DOT": -0.01384389, "MEAN_MOTION_DDOT": 0}, "tle": {"line1": "1 66937U 25286N   25354.83335647 -.01384389  00000+0 -99606-2 0  9991", "line2": "2 66937  53.1571   9.7730 0000868  84.7043 243.6832 15.75685305  3296"}}, "geometry": {"type": "Point", "coordinates": [40.875068742067434, 35.80836317579544]}}, {"type": "Feature", "properties": {"norad_id": 66938, "name": "STARLINK-36155", "group": "last-30-days", "lat": 37.10305174680266, "lon": 42.67394238074924, "alt_km": 340.5680585136424, "timestamp": "2025-12-21T03:56:49.617503+00:00", "meta": {"OBJECT_NAME": "STARLINK-36155", "OBJECT_ID": "2025-286P", "EPOCH": "2025-12-20T20:00:01.999008", "MEAN_MOTION": 15.75641487, "ECCENTRICITY": 6.87e-05, "INCLINATION": 53.157, "RA_OF_ASC_NODE": 9.7687, "ARG_OF_PERICENTER": 93.803, "MEAN_ANOMALY": 236.5817, "EPHEMERIS_TYPE": 0, "CLASSIFICATION_TYPE": "U", "NORAD_CAT_ID": 66938, "ELEMENT_SET_NO": 999, "REV_AT_EPOCH": 329, "BSTAR": -0.010049, "MEAN_MOTION_DOT": -0.01392781, "MEAN_MOTION_DDOT": 0}, "tle": {"line1": "1 66938U 25286P   25354.83335647 -.01392781  00000+0 -10049-1 0  9990", "line2": "2 66938  53.1570   9.7687 0000687  93.8030 236.5817 15.75641487  3290"}}, "geometry": {"type": "Point", "coordinates": [42.67394238074924, 37.10305174680266]}}]}